<?xml version="1.0" encoding="UTF-8"?>
<kml xmlns="http://www.opengis.net/kml/2.2" xmlns:gx="http://www.google.com/kml/ext/2.2" xmlns:kml="http://www.opengis.net/kml/2.2" xmlns:atom="http://www.w3.org/2005/Atom">
<Document id="1ZH93bk77fgydnMPJLap5pOl9HkGD9KF6">
	<name>Untitled map project</name>
	<gx:CascadingStyle kml:id="__managed_style_0815BA0A3B4174DC5004_highlight">
		<styleUrl>https://earth.google.com/balloon_components/base/1.1.0.0/card_template.kml#main</styleUrl>
		<Style>
			<IconStyle>
				<scale>1.2</scale>
				<Icon>
					<href>https://earth.google.com/earth/document/icon?color=1976d2&amp;id=2000&amp;scale=4</href>
				</Icon>
				<hotSpot x="64" y="128" xunits="pixels" yunits="insetPixels"/>
			</IconStyle>
			<LabelStyle>
			</LabelStyle>
			<LineStyle>
				<color>ffff000f</color>
				<width>4.8</width>
			</LineStyle>
			<PolyStyle>
				<color>4058eeff</color>
			</PolyStyle>
			<BalloonStyle>
			</BalloonStyle>
		</Style>
	</gx:CascadingStyle>
	<gx:CascadingStyle kml:id="__managed_style_0ED927DBFC4174E32543_highlight">
		<Style>
			<IconStyle>
				<scale>1.2</scale>
				<Icon>
					<href>https://earth.google.com/earth/document/icon?color=42a5f5&amp;id=2322&amp;scale=4</href>
				</Icon>
				<hotSpot x="64" y="128" xunits="pixels" yunits="insetPixels"/>
			</IconStyle>
			<LabelStyle>
			</LabelStyle>
			<LineStyle>
				<color>ff2dc0fb</color>
				<width>4.8</width>
			</LineStyle>
			<PolyStyle>
				<color>40ffffff</color>
			</PolyStyle>
			<BalloonStyle>
			</BalloonStyle>
		</Style>
	</gx:CascadingStyle>
	<StyleMap id="__managed_style_0815BA0A3B4174DC5004">
		<Pair>
			<key>normal</key>
			<styleUrl>#__managed_style_0815BA0A3B4174DC5004_normal</styleUrl>
		</Pair>
		<Pair>
			<key>highlight</key>
			<styleUrl>#__managed_style_0815BA0A3B4174DC5004_highlight</styleUrl>
		</Pair>
	</StyleMap>
	<StyleMap id="__managed_style_2C164D1D574174B7CA44">
		<Pair>
			<key>normal</key>
			<styleUrl>#__managed_style_2C164D1D574174B7CA44_normal</styleUrl>
		</Pair>
		<Pair>
			<key>highlight</key>
			<styleUrl>#__managed_style_2C164D1D574174B7CA44_highlight</styleUrl>
		</Pair>
	</StyleMap>
	<gx:CascadingStyle kml:id="__managed_style_07E61E848D4174DC9FE3_highlight">
		<styleUrl>https://earth.google.com/balloon_components/base/1.1.0.0/card_template.kml#main</styleUrl>
		<Style>
			<IconStyle>
				<scale>1.2</scale>
				<Icon>
					<href>https://earth.google.com/earth/document/icon?color=1976d2&amp;id=2000&amp;scale=4</href>
				</Icon>
				<hotSpot x="64" y="128" xunits="pixels" yunits="insetPixels"/>
			</IconStyle>
			<LabelStyle>
			</LabelStyle>
			<LineStyle>
				<color>ffff00b3</color>
				<width>4.8</width>
			</LineStyle>
			<PolyStyle>
				<color>40a21f7b</color>
			</PolyStyle>
			<BalloonStyle>
			</BalloonStyle>
		</Style>
	</gx:CascadingStyle>
	<gx:CascadingStyle kml:id="__managed_style_07E61E848D4174DC9FE3_normal">
		<styleUrl>https://earth.google.com/balloon_components/base/1.1.0.0/card_template.kml#main</styleUrl>
		<Style>
			<IconStyle>
				<Icon>
					<href>https://earth.google.com/earth/document/icon?color=1976d2&amp;id=2000&amp;scale=4</href>
				</Icon>
				<hotSpot x="64" y="128" xunits="pixels" yunits="insetPixels"/>
			</IconStyle>
			<LabelStyle>
			</LabelStyle>
			<LineStyle>
				<color>ffff00b3</color>
				<width>3.2</width>
			</LineStyle>
			<PolyStyle>
				<color>40a21f7b</color>
			</PolyStyle>
			<BalloonStyle>
			</BalloonStyle>
		</Style>
	</gx:CascadingStyle>
	<gx:CascadingStyle kml:id="__managed_style_0815BA0A3B4174DC5004_normal">
		<styleUrl>https://earth.google.com/balloon_components/base/1.1.0.0/card_template.kml#main</styleUrl>
		<Style>
			<IconStyle>
				<Icon>
					<href>https://earth.google.com/earth/document/icon?color=1976d2&amp;id=2000&amp;scale=4</href>
				</Icon>
				<hotSpot x="64" y="128" xunits="pixels" yunits="insetPixels"/>
			</IconStyle>
			<LabelStyle>
			</LabelStyle>
			<LineStyle>
				<color>ffff000f</color>
				<width>3.2</width>
			</LineStyle>
			<PolyStyle>
				<color>4058eeff</color>
			</PolyStyle>
			<BalloonStyle>
			</BalloonStyle>
		</Style>
	</gx:CascadingStyle>
	<gx:CascadingStyle kml:id="__managed_style_0ED927DBFC4174E32543_normal">
		<Style>
			<IconStyle>
				<Icon>
					<href>https://earth.google.com/earth/document/icon?color=42a5f5&amp;id=2322&amp;scale=4</href>
				</Icon>
				<hotSpot x="64" y="128" xunits="pixels" yunits="insetPixels"/>
			</IconStyle>
			<LabelStyle>
			</LabelStyle>
			<LineStyle>
				<color>ff2dc0fb</color>
				<width>3.2</width>
			</LineStyle>
			<PolyStyle>
				<color>40ffffff</color>
			</PolyStyle>
			<BalloonStyle>
			</BalloonStyle>
		</Style>
	</gx:CascadingStyle>
	<StyleMap id="__managed_style_07E61E848D4174DC9FE3">
		<Pair>
			<key>normal</key>
			<styleUrl>#__managed_style_07E61E848D4174DC9FE3_normal</styleUrl>
		</Pair>
		<Pair>
			<key>highlight</key>
			<styleUrl>#__managed_style_07E61E848D4174DC9FE3_highlight</styleUrl>
		</Pair>
	</StyleMap>
	<StyleMap id="__managed_style_0ED927DBFC4174E32543">
		<Pair>
			<key>normal</key>
			<styleUrl>#__managed_style_0ED927DBFC4174E32543_normal</styleUrl>
		</Pair>
		<Pair>
			<key>highlight</key>
			<styleUrl>#__managed_style_0ED927DBFC4174E32543_highlight</styleUrl>
		</Pair>
	</StyleMap>
	<gx:CascadingStyle kml:id="__managed_style_12448A14D24174B7CA41_normal">
		<styleUrl>https://earth.google.com/balloon_components/base/1.1.0.0/card_template.kml#main</styleUrl>
		<Style>
			<IconStyle>
				<Icon>
					<href>https://earth.google.com/earth/document/icon?color=000000&amp;id=2371&amp;scale=4</href>
				</Icon>
				<hotSpot x="64" y="128" xunits="pixels" yunits="insetPixels"/>
			</IconStyle>
			<LabelStyle>
			</LabelStyle>
			<LineStyle>
				<color>ff2dc0fb</color>
				<width>3.2</width>
			</LineStyle>
			<PolyStyle>
				<color>40ffffff</color>
			</PolyStyle>
			<BalloonStyle>
			</BalloonStyle>
		</Style>
	</gx:CascadingStyle>
	<gx:CascadingStyle kml:id="__managed_style_07146D28534174B7CA41_normal">
		<Style>
			<IconStyle>
				<Icon>
					<href>https://earth.google.com/earth/document/icon?color=1976d2&amp;id=2127&amp;scale=4</href>
				</Icon>
				<hotSpot x="64" y="128" xunits="pixels" yunits="insetPixels"/>
			</IconStyle>
			<LabelStyle>
			</LabelStyle>
			<LineStyle>
				<color>ff2dc0fb</color>
				<width>3.2</width>
			</LineStyle>
			<PolyStyle>
				<color>40ffffff</color>
			</PolyStyle>
			<BalloonStyle>
			</BalloonStyle>
		</Style>
	</gx:CascadingStyle>
	<StyleMap id="__managed_style_12448A14D24174B7CA41">
		<Pair>
			<key>normal</key>
			<styleUrl>#__managed_style_12448A14D24174B7CA41_normal</styleUrl>
		</Pair>
		<Pair>
			<key>highlight</key>
			<styleUrl>#__managed_style_12448A14D24174B7CA41_highlight</styleUrl>
		</Pair>
	</StyleMap>
	<gx:CascadingStyle kml:id="__managed_style_0C29E5D6F64174B7CA40_highlight">
		<Style>
			<IconStyle>
				<scale>1.2</scale>
				<Icon>
					<href>https://earth.google.com/earth/document/icon?color=1976d2&amp;id=2000&amp;scale=4</href>
				</Icon>
				<hotSpot x="64" y="128" xunits="pixels" yunits="insetPixels"/>
			</IconStyle>
			<LabelStyle>
			</LabelStyle>
			<LineStyle>
				<color>ff2dc0fb</color>
				<width>4.8</width>
			</LineStyle>
			<PolyStyle>
				<color>40ffffff</color>
			</PolyStyle>
			<BalloonStyle>
			</BalloonStyle>
		</Style>
	</gx:CascadingStyle>
	<gx:CascadingStyle kml:id="__managed_style_07146D28534174B7CA41_highlight">
		<Style>
			<IconStyle>
				<scale>1.2</scale>
				<Icon>
					<href>https://earth.google.com/earth/document/icon?color=1976d2&amp;id=2127&amp;scale=4</href>
				</Icon>
				<hotSpot x="64" y="128" xunits="pixels" yunits="insetPixels"/>
			</IconStyle>
			<LabelStyle>
			</LabelStyle>
			<LineStyle>
				<color>ff2dc0fb</color>
				<width>4.8</width>
			</LineStyle>
			<PolyStyle>
				<color>40ffffff</color>
			</PolyStyle>
			<BalloonStyle>
			</BalloonStyle>
		</Style>
	</gx:CascadingStyle>
	<gx:CascadingStyle kml:id="__managed_style_2C164D1D574174B7CA44_normal">
		<Style>
			<IconStyle>
				<Icon>
					<href>https://earth.google.com/earth/document/icon?color=1976d2&amp;id=2000&amp;scale=4</href>
				</Icon>
				<hotSpot x="64" y="128" xunits="pixels" yunits="insetPixels"/>
			</IconStyle>
			<LabelStyle>
			</LabelStyle>
			<LineStyle>
				<color>ff0000e6</color>
				<width>3.2</width>
			</LineStyle>
			<PolyStyle>
				<color>40ffffff</color>
			</PolyStyle>
			<BalloonStyle>
			</BalloonStyle>
		</Style>
	</gx:CascadingStyle>
	<StyleMap id="__managed_style_07146D28534174B7CA41">
		<Pair>
			<key>normal</key>
			<styleUrl>#__managed_style_07146D28534174B7CA41_normal</styleUrl>
		</Pair>
		<Pair>
			<key>highlight</key>
			<styleUrl>#__managed_style_07146D28534174B7CA41_highlight</styleUrl>
		</Pair>
	</StyleMap>
	<gx:CascadingStyle kml:id="__managed_style_12448A14D24174B7CA41_highlight">
		<styleUrl>https://earth.google.com/balloon_components/base/1.1.0.0/card_template.kml#main</styleUrl>
		<Style>
			<IconStyle>
				<scale>1.2</scale>
				<Icon>
					<href>https://earth.google.com/earth/document/icon?color=000000&amp;id=2371&amp;scale=4</href>
				</Icon>
				<hotSpot x="64" y="128" xunits="pixels" yunits="insetPixels"/>
			</IconStyle>
			<LabelStyle>
			</LabelStyle>
			<LineStyle>
				<color>ff2dc0fb</color>
				<width>4.8</width>
			</LineStyle>
			<PolyStyle>
				<color>40ffffff</color>
			</PolyStyle>
			<BalloonStyle>
			</BalloonStyle>
		</Style>
	</gx:CascadingStyle>
	<gx:CascadingStyle kml:id="__managed_style_2C164D1D574174B7CA44_highlight">
		<Style>
			<IconStyle>
				<scale>1.2</scale>
				<Icon>
					<href>https://earth.google.com/earth/document/icon?color=1976d2&amp;id=2000&amp;scale=4</href>
				</Icon>
				<hotSpot x="64" y="128" xunits="pixels" yunits="insetPixels"/>
			</IconStyle>
			<LabelStyle>
			</LabelStyle>
			<LineStyle>
				<color>ff0000e6</color>
				<width>4.8</width>
			</LineStyle>
			<PolyStyle>
				<color>40ffffff</color>
			</PolyStyle>
			<BalloonStyle>
			</BalloonStyle>
		</Style>
	</gx:CascadingStyle>
	<StyleMap id="__managed_style_002D2843404174B7CA43">
		<Pair>
			<key>normal</key>
			<styleUrl>#__managed_style_002D2843404174B7CA43_normal</styleUrl>
		</Pair>
		<Pair>
			<key>highlight</key>
			<styleUrl>#__managed_style_002D2843404174B7CA43_highlight</styleUrl>
		</Pair>
	</StyleMap>
	<gx:CascadingStyle kml:id="__managed_style_0C29E5D6F64174B7CA40_normal">
		<Style>
			<IconStyle>
				<Icon>
					<href>https://earth.google.com/earth/document/icon?color=1976d2&amp;id=2000&amp;scale=4</href>
				</Icon>
				<hotSpot x="64" y="128" xunits="pixels" yunits="insetPixels"/>
			</IconStyle>
			<LabelStyle>
			</LabelStyle>
			<LineStyle>
				<color>ff2dc0fb</color>
				<width>3.2</width>
			</LineStyle>
			<PolyStyle>
				<color>40ffffff</color>
			</PolyStyle>
			<BalloonStyle>
			</BalloonStyle>
		</Style>
	</gx:CascadingStyle>
	<gx:CascadingStyle kml:id="__managed_style_002D2843404174B7CA43_highlight">
		<Style>
			<IconStyle>
				<scale>1.2</scale>
				<Icon>
					<href>https://earth.google.com/earth/document/icon?color=1976d2&amp;id=2000&amp;scale=4</href>
				</Icon>
				<hotSpot x="64" y="128" xunits="pixels" yunits="insetPixels"/>
			</IconStyle>
			<LabelStyle>
			</LabelStyle>
			<LineStyle>
				<color>ff2dc0fb</color>
				<width>4.8</width>
			</LineStyle>
			<PolyStyle>
				<color>40ffffff</color>
			</PolyStyle>
			<BalloonStyle>
			</BalloonStyle>
		</Style>
	</gx:CascadingStyle>
	<StyleMap id="__managed_style_0C29E5D6F64174B7CA40">
		<Pair>
			<key>normal</key>
			<styleUrl>#__managed_style_0C29E5D6F64174B7CA40_normal</styleUrl>
		</Pair>
		<Pair>
			<key>highlight</key>
			<styleUrl>#__managed_style_0C29E5D6F64174B7CA40_highlight</styleUrl>
		</Pair>
	</StyleMap>
	<gx:CascadingStyle kml:id="__managed_style_002D2843404174B7CA43_normal">
		<Style>
			<IconStyle>
				<Icon>
					<href>https://earth.google.com/earth/document/icon?color=1976d2&amp;id=2000&amp;scale=4</href>
				</Icon>
				<hotSpot x="64" y="128" xunits="pixels" yunits="insetPixels"/>
			</IconStyle>
			<LabelStyle>
			</LabelStyle>
			<LineStyle>
				<color>ff2dc0fb</color>
				<width>3.2</width>
			</LineStyle>
			<PolyStyle>
				<color>40ffffff</color>
			</PolyStyle>
			<BalloonStyle>
			</BalloonStyle>
		</Style>
	</gx:CascadingStyle>
	<Folder id="5E50AF74A3000001">
		<name>route</name>
		<open>1</open>
		<styleUrl>#__managed_style_002D2843404174B7CA43</styleUrl>
	</Folder>
	<Folder id="5E50B3CBAD000001">
		<name>route</name>
		<open>1</open>
		<styleUrl>#__managed_style_002D2843404174B7CA43</styleUrl>
		<Folder id="5E50B3CBAE000002">
			<name>Tracks</name>
			<open>1</open>
			<styleUrl>#__managed_style_002D2843404174B7CA43</styleUrl>
			<Placemark id="5E50B3CBAE000003">
				<name>Google Maps Route</name>
				<snippet></snippet>
				<description>&amp;nbsp;</description>
				<styleUrl>#__managed_style_2C164D1D574174B7CA44</styleUrl>
				<LineString>
					<tessellate>1</tessellate>
					<coordinates>
						74.48460890895808,19.89248129523617,0 74.48409619546469,19.89295027379078,0 74.485306753595,19.89439371963342,0 74.48621502032489,19.89504480540106,0 74.48718,19.8955,0 74.48878000000001,19.8962,0 74.48895,19.89628,0 74.48924,19.89641,0 74.48989,19.89671,0 74.49027,19.89688,0 74.4906,19.89704,0 74.49066999999999,19.89707,0 74.49072,19.89709,0 74.49146,19.89743,0 74.49169999999999,19.89754,0 74.49177,19.89757,0 74.49209,19.89772,0 74.49236999999999,19.89784,0 74.49240766791037,19.89775585042857,0 74.49245677456038,19.89763272279442,0 74.49272570012793,19.89656628792721,0 74.49420505979246,19.89545325078479,0 74.49557019020561,19.89420834857948,0 74.49422048184088,19.89543791714901,0 74.49272416636546,19.89657249323766,0 74.49426874192704,19.8972807429647,0 74.49478913912796,19.89666103930839,0 74.49427025468789,19.89727453529835,0 74.49567035436084,19.89786553441444,0 74.49611010400756,19.89727899633298,0 74.49478104412835,19.8966679377729,0 74.49351453212577,19.89589844179208,0 74.49274204337041,19.89656691298077,0 74.49316177965355,19.89527803300722,0 74.49334668157796,19.89393718151061,0 74.49560832044945,19.89415054608401,0 74.49570496690214,19.89417100140776,0 74.49635622534045,19.89473135974601,0 74.49735019558209,19.89427571768561,0 74.49749104538184,19.8947761473941,0 74.49661943998078,19.89554554708484,0 74.49743158860058,19.89608473236511,0 74.49653333010519,19.89671435022341,0 74.49567675006794,19.8978666086889,0 74.49483371476173,19.89849939492406,0 74.49404131081215,19.89766057935476,0 74.49348807922603,19.89824169855334,0 74.49478841443579,19.89980361346788,0 74.49496331804137,19.89999695166634,0 74.49515952707809,19.9002487081234,0 74.49532047208395,19.90031555346494,0 74.49651295209888,19.90097010310019,0 74.49707946374384,19.90127396610228,0 74.49756522646125,19.90177408477053,0 74.49957827545957,19.90367068715024,0 74.50049937477995,19.90283350297357,0 74.5017770151742,19.90246669762272,0 74.50437927363681,19.9015721546094,0 74.5107705530647,19.89822283923845,0 74.51312327136306,19.89492107816259,0 74.51315494242682,19.89184247351782,0 74.51485427632646,19.88687811737961,0 74.5129563023215,19.89178848524449,0 74.51302746034708,19.89483787823979,0 74.51056369717588,19.89809875608113,0 74.50566324689527,19.90076081924497,0 74.50170073947271,19.90236558185913,0 74.50048904407669,19.90275264849421,0 74.49964173975761,19.90350929111918,0 74.49784319193003,19.90195121141025,0 74.49578077791983,19.90068335487539,0 74.49503,19.90066,0 74.49502,19.90067,0 74.49500999999999,19.90069,0 74.49499,19.90069,0 74.49491999999999,19.9007,0 74.49499,19.90069,0 74.49500999999999,19.90069,0 74.49502,19.90067,0 74.49503,19.90066,0 74.49507,19.90062,0 74.49496000000001,19.90045,0 74.49490159516309,19.90026459626458,0 74.49479715420108,19.89999816124606,0 74.49457,19.89985,0 74.49436,19.89984,0 74.49419,19.89984,0 74.49381,19.89985,0 74.49368,19.89985,0 74.49362000000001,19.89985,0 74.49355,19.89986,0 74.49344000000001,19.89988,0 74.4933,19.89996,0 74.49321,19.90002,0 74.4931,19.90009,0 74.49302,19.90016,0 74.49294,19.90023,0 74.49285,19.90031,0 74.4928,19.90038,0 74.49272999999999,19.90048,0 74.49272000000001,19.90051,0 74.49262,19.90072,0 74.49252,19.90098,0 74.49249,19.90105,0 74.49245999999999,19.90116,0 74.49243,19.90132,0 74.49243,19.90141,0 74.49243,19.90151,0 74.49242,19.9016,0 74.4924,19.90177,0 74.49236999999999,19.90192,0 74.49232000000001,19.90204,0 74.49225,19.90219,0 74.49224,19.9022,0 74.49216,19.90236,0 74.49209999999999,19.90248,0 74.49204,19.90259,0 74.49195,19.90276,0 74.49191999999999,19.9029,0 74.49189,19.90309,0 74.49187999999999,19.90321,0 74.49187999999999,19.90331,0 74.49187000000001,19.90339,0 74.49187000000001,19.90344,0 74.49187000000001,19.9035,0 74.49189,19.90363,0 74.49199,19.90392,0 74.49205000000001,19.90411,0 74.49213,19.90426,0 74.49216,19.90433,0 74.49218999999999,19.90441,0 74.49225,19.90458,0 74.49227999999999,19.90469,0 74.49218,19.90463,0 74.49215,19.90461,0 74.49213,19.90459,0 74.49211,19.90458,0 74.49209999999999,19.90458,0 74.49207,19.90458,0 74.49205000000001,19.90458,0 74.49202,19.90458,0 74.492,19.90459,0 74.49198,19.90461,0 74.49191,19.90468,0 74.49187999999999,19.90472,0 74.49187000000001,19.90474,0 74.49185,19.90478,0 74.49181,19.90485,0 74.49178999999999,19.9049,0 74.49176,19.90494,0 74.49171,19.905,0 74.49163,19.90508,0 74.49162,19.90508,0 74.49133999999999,19.90519,0 74.49099,19.90523,0 74.49039396384156,19.90521878376721,0 74.49037227204859,19.9047188449468,0 74.49035058039267,19.90421890612376,0 74.49006091322475,19.90421384966806,0 74.48977124607535,19.90420879274356,0 74.48976062307297,19.9047343963721,0 74.48975,19.90526,0 74.48939,19.90528,0 74.4888,19.90532,0 74.48860999999999,19.90532,0 74.48862,19.90509,0 74.48864,19.90493,0 74.48819,19.90493,0 74.48820000000001,19.90485,0 74.48819,19.90473,0 74.48821,19.90468,0 74.48822,19.90464,0 74.48824999999999,19.90456,0 74.48827,19.90451,0 74.48833999999999,19.90438,0 74.48833999999999,19.90437,0 74.48836,19.90436,0 74.48838000000001,19.90434,0 74.4884,19.90432,0 74.48842,19.9043,0 74.48846,19.90427,0 74.4885,19.90425,0 74.48865000000001,19.90416,0 74.48869000000001,19.90414,0 74.48871,19.90411,0 74.48872,19.90409,0 74.48872,19.90407,0 74.48872,19.90405,0 74.48872,19.90404,0 74.48872,19.90403,0 74.48871,19.90401,0 74.48866,19.90398,0 74.48864,19.90395,0 74.48863,19.90393,0 74.48862,19.90391,0 74.48862,19.9039,0 74.48860999999999,19.90387,0 74.48860999999999,19.90384,0 74.48862,19.90374,0 74.49038222634438,19.90364981658688,0 74.49036191546189,19.90327510281621,0 74.48981484015877,19.90323953103337,0 74.48986302377371,19.90281632697587,0 74.48946859421662,19.90284170366355,0 74.48939929749298,19.90304235817224,0 74.48922275061476,19.90303546048823,0 74.48917865084054,19.90319262476691,0 74.48857019368845,19.90322526498917,0 74.48861010771755,19.90368061593537,0 74.48862324837748,19.90374758903657,0 74.48860000000001,19.9035,0 74.48859,19.90344,0 74.48858,19.90328,0 74.48858,19.90324,0 74.48856000000001,19.90305,0 74.48856000000001,19.90303,0 74.48855,19.90292,0 74.48855,19.90284,0 74.48940613235479,19.90285407751583,0 74.48957014501418,19.90230822554777,0 74.48858385035516,19.90238122233478,0 74.48854175110887,19.90281841787542,0 74.48859621372259,19.90236946494448,0 74.48835,19.90243,0 74.48832,19.90215,0 74.48832,19.90213,0 74.4883,19.90192,0 74.48824999999999,19.90155,0 74.48817473075643,19.90080482131665,0 74.48928843566276,19.90053971720537,0 74.48920205479014,19.90000058937834,0 74.48911998712657,19.89964607648405,0 74.48813,19.90016,0 74.48818255609009,19.90081273806639,0 74.48811511119463,19.89984014557173,0 74.48806456586036,19.89939264810037,0 74.48812654948495,19.900160101794,0 74.48841560635061,19.90002189472267,0 74.48838112030907,19.89947722455652,0 74.48788999999999,19.89935,0 74.48786,19.89933,0 74.48783,19.8993,0 74.48782,19.89928,0 74.48779,19.89916,0 74.48775999999999,19.89905,0 74.48775000000001,19.89901,0 74.48757000000001,19.89901,0 74.48775000000001,19.89901,0 74.48775000000001,19.89898,0 74.48786,19.89899,0 74.48799,19.89899,0 74.48809,19.89899,0 74.48815999999999,19.89899,0 74.48822,19.89898,0 74.48824999999999,19.89896,0 74.48828,19.89895,0 74.48831,19.89894,0 74.48836,19.89895,0 74.4884,19.89896,0 74.48846,19.89897,0 74.48851999999999,19.89897,0 74.48854,19.89897,0 74.48860000000001,19.89896,0 74.48867,19.89892,0 74.48872,19.89889,0 74.48878000000001,19.89887,0 74.48882,19.89886,0 74.48887000000001,19.89886,0 74.48891,19.89886,0 74.48903079827207,19.89881105962644,0 74.48908,19.89879,0 74.48908,19.89878,0 74.48909999999999,19.89877,0 74.48913,19.89872,0 74.48915,19.89871,0 74.48917,19.89869,0 74.48918,19.89866,0 74.48918999999999,19.89865,0 74.4892,19.89863,0 74.48921,19.89861,0 74.48923000000001,19.89861,0 74.48924,19.8986,0 74.48926,19.89859,0 74.48927,19.89859,0 74.48945999999999,19.89858,0 74.4895098767046,19.89908375053497,0 74.48958920369122,19.89931112393849,0 74.48963227185354,19.89955483189726,0 74.48988208901335,19.89951260811508,0 74.49026680349715,19.89946176229858,0 74.49045283788064,19.89917907709149,0 74.49015698011974,19.89905666287149,0 74.4900032668366,19.89899829167616,0 74.4898634002591,19.89902931193259,0 74.48951150091926,19.8990770952404,0 74.4898588538403,19.89903771607854,0 74.48984625887482,19.8987863587702,0 74.48946834742009,19.89881752679073,0 74.48946255128575,19.89856436473163,0 74.48983,19.89852,0 74.49006,19.89859,0 74.49076194380234,19.89873012910819,0 74.49112500530124,19.89802983924415,0 74.49084190831744,19.89858653943897,0 74.4912472398144,19.89874760052464,0 74.49149673655438,19.89823558374023,0 74.49112307303656,19.89803767695979,0 74.49127,19.89777,0 74.49146,19.89743,0 74.49147000000001,19.89739,0 
					</coordinates>
				</LineString>
			</Placemark>
			<Placemark id="0950FE911941730CF60B">
				<name>DEPOT</name>
				<LookAt>
					<longitude>74.4821294841164</longitude>
					<latitude>19.90223714481856</latitude>
					<altitude>526.1670016532056</altitude>
					<heading>27.09625468570105</heading>
					<tilt>0</tilt>
					<gx:fovy>34.99999601</gx:fovy>
					<range>3975.962529225508</range>
					<altitudeMode>absolute</altitudeMode>
				</LookAt>
				<styleUrl>#__managed_style_07146D28534174B7CA41</styleUrl>
				<Point>
					<coordinates>74.48460626469276,19.89237926333578,523.717065307403</coordinates>
				</Point>
			</Placemark>
			<Placemark id="08F40504BE41730D7510">
				<name>BIN-003</name>
				<LookAt>
					<longitude>74.49160351418472</longitude>
					<latitude>19.90277761838087</latitude>
					<altitude>520.7152530833536</altitude>
					<heading>27.09817416878463</heading>
					<tilt>0</tilt>
					<gx:fovy>34.99999601</gx:fovy>
					<range>681.1155695760681</range>
					<altitudeMode>absolute</altitudeMode>
				</LookAt>
				<styleUrl>#__managed_style_0C29E5D6F64174B7CA40</styleUrl>
				<Point>
					<coordinates>74.49187208844876,19.9034563708347,521.1222372831363</coordinates>
				</Point>
			</Placemark>
			<Placemark id="09A12097034173178510">
				<name>BIN-004</name>
				<LookAt>
					<longitude>74.49032861096721</longitude>
					<latitude>19.90407112469603</latitude>
					<altitude>524.6925177738633</altitude>
					<heading>27.09970584219264</heading>
					<tilt>0</tilt>
					<gx:fovy>34.99999600999999</gx:fovy>
					<range>503.5465573226248</range>
					<altitudeMode>absolute</altitudeMode>
				</LookAt>
				<styleUrl>#__managed_style_0C29E5D6F64174B7CA40</styleUrl>
				<Point>
					<coordinates>74.49015115572115,19.90420380805315,524.9488939683724</coordinates>
				</Point>
			</Placemark>
			<Placemark id="0D7429E1834173185527">
				<name>TRUCK-002</name>
				<description><![CDATA[<div>Vehicle ID: TRUCK-002<br></div><div>Driver: DRIVER-002<br></div><div>Capacity: 900 kg<br></div><div>Current Load: 400 kg<br></div><div>Status: Active<br></div><div>Zone: B<br></div>]]></description>
				<LookAt>
					<longitude>74.48815747433473</longitude>
					<latitude>19.89959776758957</latitude>
					<altitude>527.3017412149636</altitude>
					<heading>27.09928938095539</heading>
					<tilt>0</tilt>
					<gx:fovy>34.99999600999999</gx:fovy>
					<range>2971.149255963683</range>
					<altitudeMode>absolute</altitudeMode>
				</LookAt>
				<styleUrl>#__managed_style_12448A14D24174B7CA41</styleUrl>
				<Point>
					<coordinates>74.49521871213774,19.89865886825301,525.6586274835645</coordinates>
				</Point>
			</Placemark>
			<Placemark id="00A236E74741731C0819">
				<name>SOC-002</name>
				<LookAt>
					<longitude>74.49413967837678</longitude>
					<latitude>19.89806887705565</latitude>
					<altitude>521.9756981207205</altitude>
					<heading>27.10183835658024</heading>
					<tilt>0</tilt>
					<gx:fovy>34.99999601</gx:fovy>
					<range>947.4117233978177</range>
					<altitudeMode>absolute</altitudeMode>
				</LookAt>
				<styleUrl>#__managed_style_0C29E5D6F64174B7CA40</styleUrl>
				<Point>
					<coordinates>74.49538202780799,19.89766789800159,523.2161477480554</coordinates>
				</Point>
			</Placemark>
			<Placemark id="0E1971E7564174D384EF">
				<name>BIN-005</name>
				<LookAt>
					<longitude>74.49685128721093</longitude>
					<latitude>19.8964712195106</latitude>
					<altitude>517.1137213642692</altitude>
					<heading>-13.55320072464915</heading>
					<tilt>13.6378966787943</tilt>
					<gx:fovy>34.99999600999999</gx:fovy>
					<range>1289.581973773311</range>
					<altitudeMode>absolute</altitudeMode>
				</LookAt>
				<styleUrl>#__managed_style_0C29E5D6F64174B7CA40</styleUrl>
				<Point>
					<coordinates>74.49478256489589,19.89663321103459,522.8901028445366</coordinates>
				</Point>
			</Placemark>
			<Placemark id="0CD43FE93D4174D3DDC9">
				<name>BIN-006</name>
				<LookAt>
					<longitude>74.49520037118013</longitude>
					<latitude>19.89733159107389</latitude>
					<altitude>521.4502437409535</altitude>
					<heading>-13.55444721907199</heading>
					<tilt>13.63935676878627</tilt>
					<gx:fovy>34.99999600999999</gx:fovy>
					<range>1978.346429269295</range>
					<altitudeMode>absolute</altitudeMode>
				</LookAt>
				<styleUrl>#__managed_style_0C29E5D6F64174B7CA40</styleUrl>
				<Point>
					<coordinates>74.49483839798589,19.89488959972844,522.0089341983914</coordinates>
				</Point>
			</Placemark>
			<Placemark id="0B622AC65B4174D472E0">
				<name>SOC-003</name>
				<LookAt>
					<longitude>74.49368014686628</longitude>
					<latitude>19.90121240979945</latitude>
					<altitude>524.0715857138023</altitude>
					<heading>-13.55621778225972</heading>
					<tilt>13.63931159972419</tilt>
					<gx:fovy>34.99999600999999</gx:fovy>
					<range>1957.039725729846</range>
					<altitudeMode>absolute</altitudeMode>
				</LookAt>
				<styleUrl>#__managed_style_0C29E5D6F64174B7CA40</styleUrl>
				<Point>
					<coordinates>74.48983793694222,19.89955817064783,524.9495772661833</coordinates>
				</Point>
			</Placemark>
			<Placemark id="0F74A52A114174D51500">
				<name>BIN-007</name>
				<LookAt>
					<longitude>74.49121229582003</longitude>
					<latitude>19.90228072305348</latitude>
					<altitude>522.6420491680202</altitude>
					<heading>-13.5575184289277</heading>
					<tilt>13.63887497950404</tilt>
					<gx:fovy>34.99999600999999</gx:fovy>
					<range>1751.073935937603</range>
					<altitudeMode>absolute</altitudeMode>
				</LookAt>
				<styleUrl>#__managed_style_0C29E5D6F64174B7CA40</styleUrl>
				<Point>
					<coordinates>74.48986008709797,19.90291501452921,525.5843965971293</coordinates>
				</Point>
			</Placemark>
			<Placemark id="04A7F90E114174D556E6">
				<name>BIN-008</name>
				<LookAt>
					<longitude>74.49536112868483</longitude>
					<latitude>19.89854366456327</latitude>
					<altitude>518.7339113804273</altitude>
					<heading>-13.5546428094062</heading>
					<tilt>13.63973812875763</tilt>
					<gx:fovy>34.99999600999999</gx:fovy>
					<range>2158.243353247236</range>
					<altitudeMode>absolute</altitudeMode>
				</LookAt>
				<styleUrl>#__managed_style_0C29E5D6F64174B7CA40</styleUrl>
				<Point>
					<coordinates>74.49703855489827,19.89637914429884,516.3004278991132</coordinates>
				</Point>
			</Placemark>
			<Placemark id="0B69CD10D64174E2F99C">
				<name>DUMPYARD</name>
				<LookAt>
					<longitude>74.51485047977555</longitude>
					<latitude>19.8864915364017</latitude>
					<altitude>520.0437938312245</altitude>
					<heading>-14.45918341529587</heading>
					<tilt>15.35784608265087</tilt>
					<gx:fovy>34.99999600999999</gx:fovy>
					<range>1058.147339858988</range>
					<altitudeMode>absolute</altitudeMode>
				</LookAt>
				<styleUrl>#__managed_style_0ED927DBFC4174E32543</styleUrl>
				<Point>
					<coordinates>74.5148330917217,19.88689986542492,521.0259927856046</coordinates>
				</Point>
			</Placemark>
		</Folder>
	</Folder>
	<Placemark id="0B5FE4F1354173061944">
		<name>BIN-001</name>
		<LookAt>
			<longitude>74.49057426689727</longitude>
			<latitude>19.8981287323503</latitude>
			<altitude>525.1646702305834</altitude>
			<heading>27.0956578459465</heading>
			<tilt>0</tilt>
			<gx:fovy>34.99999601</gx:fovy>
			<range>2721.495916427812</range>
			<altitudeMode>absolute</altitudeMode>
		</LookAt>
		<styleUrl>#__managed_style_0C29E5D6F64174B7CA40</styleUrl>
		<Point>
			<coordinates>74.4928126172459,19.89672417697726,521.666133051962</coordinates>
		</Point>
	</Placemark>
	<Placemark id="0955FDBD1E41730A3306">
		<name>BIN-002</name>
		<LookAt>
			<longitude>74.48965117440953</longitude>
			<latitude>19.89996281141806</latitude>
			<altitude>524.2756785589899</altitude>
			<heading>27.0954126927885</heading>
			<tilt>0</tilt>
			<gx:fovy>34.99999601</gx:fovy>
			<range>2110.393848341773</range>
			<altitudeMode>absolute</altitudeMode>
		</LookAt>
		<styleUrl>#__managed_style_0C29E5D6F64174B7CA40</styleUrl>
		<Point>
			<coordinates>74.48822342432274,19.90121525420066,524.3450245782118</coordinates>
		</Point>
	</Placemark>
	<Placemark id="05D75251B241730A8A24">
		<name>SOC-001</name>
		<LookAt>
			<longitude>74.49025133091448</longitude>
			<latitude>19.90308784050078</latitude>
			<altitude>525.4381046176308</altitude>
			<heading>27.09570058051625</heading>
			<tilt>0</tilt>
			<gx:fovy>34.99999601</gx:fovy>
			<range>1185.822165746649</range>
			<altitudeMode>absolute</altitudeMode>
		</LookAt>
		<styleUrl>#__managed_style_0C29E5D6F64174B7CA40</styleUrl>
		<Point>
			<coordinates>74.48847133946057,19.90314932036245,526.3298749048276</coordinates>
		</Point>
	</Placemark>
	<Placemark id="0876AD3D5C41730B015E">
		<name>HH-001</name>
		<LookAt>
			<longitude>74.49041587667141</longitude>
			<latitude>19.89786023638161</latitude>
			<altitude>526.7195837295915</altitude>
			<heading>27.09494935982606</heading>
			<tilt>0</tilt>
			<gx:fovy>34.99999601</gx:fovy>
			<range>1886.741696030076</range>
			<altitudeMode>absolute</altitudeMode>
		</LookAt>
		<styleUrl>#__managed_style_0C29E5D6F64174B7CA40</styleUrl>
		<Point>
			<coordinates>74.4878000535349,19.89896730430934,523.5144261959344</coordinates>
		</Point>
	</Placemark>
	<Placemark id="0C87FD7F924173120614">
		<name>TRUCK-001</name>
		<description><![CDATA[<div>Vehicle ID: TRUCK-001<br></div><div>Driver: DRIVER-001<br></div><div>Capacity: 1000 kg<br></div><div>Current Load: 250 kg<br></div><div>Status: Active<br></div><div>Zone: A<br></div>]]></description>
		<LookAt>
			<longitude>74.49101853001495</longitude>
			<latitude>19.90185058502992</latitude>
			<altitude>524.0658594688929</altitude>
			<heading>27.09889309567966</heading>
			<tilt>0</tilt>
			<gx:fovy>34.99999601</gx:fovy>
			<range>1945.719044519356</range>
			<altitudeMode>absolute</altitudeMode>
		</LookAt>
		<styleUrl>#__managed_style_12448A14D24174B7CA41</styleUrl>
		<Point>
			<coordinates>74.4924073160458,19.9014604171903,521.5390961092804</coordinates>
		</Point>
	</Placemark>
	<Placemark id="065C57854641731FE9BB">
		<name>ZONE A</name>
		<description><![CDATA[<div>ZONE A<br></div><div>Driver: DRIVER-001<br></div><div>Truck: TRUCK-001<br></div>]]></description>
		<LookAt>
			<longitude>74.4902787546762</longitude>
			<latitude>19.90233366094189</latitude>
			<altitude>525.4299174730019</altitude>
			<heading>27.10174428606315</heading>
			<tilt>0</tilt>
			<gx:fovy>34.99999601</gx:fovy>
			<range>2904.855202908511</range>
			<altitudeMode>absolute</altitudeMode>
		</LookAt>
		<styleUrl>#__managed_style_07E61E848D4174DC9FE3</styleUrl>
		<Polygon>
			<outerBoundaryIs>
				<LinearRing>
					<coordinates>
						74.48651896793073,19.8977832481876,0 74.49437984593814,19.90028088659058,0 74.49338570157859,19.90658458221639,0 74.48549599821052,19.90463740375535,0 74.48651896793073,19.8977832481876,0 
					</coordinates>
				</LinearRing>
			</outerBoundaryIs>
		</Polygon>
	</Placemark>
	<Placemark id="08E46A28EA4173220BD4">
		<name>ZONE B</name>
		<description><![CDATA[<div>ZONE B<br></div><div>Driver: DRIVER-002<br></div><div>Truck: TRUCK-002<br></div>]]></description>
		<LookAt>
			<longitude>74.49249795745374</longitude>
			<latitude>19.90039034799747</latitude>
			<altitude>519.5907189691435</altitude>
			<heading>27.10227207681924</heading>
			<tilt>0</tilt>
			<gx:fovy>34.99999601</gx:fovy>
			<range>3137.943975733942</range>
			<altitudeMode>absolute</altitudeMode>
		</LookAt>
		<styleUrl>#__managed_style_0815BA0A3B4174DC5004</styleUrl>
		<Polygon>
			<outerBoundaryIs>
				<LinearRing>
					<coordinates>
						74.49242934688793,19.89224772666705,0 74.49943925786962,19.89435258045363,0 74.49623638884533,19.90025875940545,0 74.4933713124685,19.89935227934453,0 74.49125639807419,19.8987193402751,0 74.48937065706504,19.89807642922515,0 74.49242934688793,19.89224772666705,0 
					</coordinates>
				</LinearRing>
			</outerBoundaryIs>
		</Polygon>
	</Placemark>
	<Placemark id="0EEC1BAF2341733289B8">
		<name>TRUCK-003</name>
		<description><![CDATA[<div>Vehicle ID: TRUCK-003<br></div><div>Driver: DRIVER-003<br></div><div>Capacity: 800 kg<br></div><div>Current Load: 0 kg<br></div><div>Status: Active<br></div>]]></description>
		<LookAt>
			<longitude>74.4914937257998</longitude>
			<latitude>19.89802994550313</latitude>
			<altitude>527.0386853591104</altitude>
			<heading>31.92592737077937</heading>
			<tilt>0</tilt>
			<gx:fovy>34.99999601</gx:fovy>
			<range>3067.895337003283</range>
			<altitudeMode>absolute</altitudeMode>
		</LookAt>
		<styleUrl>#__managed_style_12448A14D24174B7CA41</styleUrl>
		<Point>
			<coordinates>74.48471573257244,19.89241913867351,523.557032178882</coordinates>
		</Point>
	</Placemark>
	<Placemark id="0C4D1857194174D73BB8">
		<name>HH-002</name>
		<LookAt>
			<longitude>74.49283350073708</longitude>
			<latitude>19.89815008841683</latitude>
			<altitude>526.6815289803498</altitude>
			<heading>-13.56036968668997</heading>
			<tilt>13.63947891221176</tilt>
			<gx:fovy>34.99999600999999</gx:fovy>
			<range>2035.966497540066</range>
			<altitudeMode>absolute</altitudeMode>
		</LookAt>
		<styleUrl>#__managed_style_0C29E5D6F64174B7CA40</styleUrl>
		<Point>
			<coordinates>74.49139637484105,19.89744223456322,528.0529322760697</coordinates>
		</Point>
	</Placemark>
</Document>
</kml>
